{"type": "FeatureCollection", "features": [ {"type": "Feature", "properties": {"norad_id": 35440, "name": "COSMOS 2251 DEB", "group": "cosmos-2251-debris", "lat": 37.34565266975786, "lon": 31.049316920040148, "alt_km": 695.8176894051157, "timestamp": "2025-12-04T10:51:50.502092+00:00", "meta": {"OBJECT_NAME": "COSMOS 2251 DEB", "OBJECT_ID": "1993-036AKJ", "EPOCH": "2025-12-04T00:25:11.599968", "MEAN_MOTION": 14.68734875, "ECCENTRICITY": 0.0068957, "INCLINATION": 74.0159, "RA_OF_ASC_NODE": 224.5259, "ARG_OF_PERICENTER": 7.4237, "MEAN_ANOMALY": 352.7936, "EPHEMERIS_TYPE": 0, "CLASSIFICATION_TYPE": "U", "NORAD_CAT_ID": 35440, "ELEMENT_SET_NO": 999, "REV_AT_EPOCH": 68637, "BSTAR": 0.0010432, "MEAN_MOTION_DOT": 6.276e-05, "MEAN_MOTION_DDOT": 0}, "tle": {"line1": "1 35440U 93036AKJ 25338.01749537  .00006276  00000+0  10432-2 0  9996", "line2": "2 35440  74.0159 224.5259 0068957   7.4237 352.7936 14.68734875686379"}}, "geometry": {"type": "Point", "coordinates": [31.049316920040148, 37.34565266975786]}}, {"type": "Feature", "properties": {"norad_id": 35441, "name": "COSMOS 2251 DEB", "group": "cosmos-2251-debris", "lat": -70.24141843623853, "lon": -98.46235261747479, "alt_km": 682.6086025137056, "timestamp": "2025-12-04T10:51:50.502102+00:00", "meta": {"OBJECT_NAME": "COSMOS 2251 DEB", "OBJECT_ID": "1993-036AKK", "EPOCH": "2025-12-02T14:53:24.205920", "MEAN_MOTION": 14.6231334, "ECCENTRICITY": 0.00376111, "INCLINATION": 74.1347, "RA_OF_ASC_NODE": 317.3711, "ARG_OF_PERICENTER": 217.6417, "MEAN_ANOMALY": 142.2119, "EPHEMERIS_TYPE": 0, "CLASSIFICATION_TYPE": "U", "NORAD_CAT_ID": 35441, "ELEMENT_SET_NO": 999, "REV_AT_EPOCH": 87282, "BSTAR": 0.002198223, "MEAN_MOTION_DOT": 0.000112, "MEAN_MOTION_DDOT": 0}, "tle": {"line1": "1 35441U 93036AKK 25336.62041905  .00011200  00000+0  21982-2 0  9991", "line2": "2 35441  74.1347 317.3711 0037611 217.6417 142.2119 14.62313340872828"}}, "geometry": {"type": "Point", "coordinates": [-98.46235261747479, -70.24141843623853]}}, {"type": "Feature", "properties": {"norad_id": 35442, "name": "COSMOS 2251 DEB", "group": "cosmos-2251-debris", "lat": -54.07065384871542, "lon": -41.138752265716334, "alt_km": 625.0345919763067, "timestamp": "2025-12-04T10:51:50.502113+00:00", "meta": {"OBJECT_NAME": "COSMOS 2251 DEB", "OBJECT_ID": "1993-036AKL", "EPOCH": "2025-12-03T15:59:55.163616", "MEAN_MOTION": 14.83772489, "ECCENTRICITY": 0.00044741, "INCLINATION": 74.0258, "RA_OF_ASC_NODE": 117.135, "ARG_OF_PERICENTER": 128.1598, "MEAN_ANOMALY": 231.9984, "EPHEMERIS_TYPE": 0, "CLASSIFICATION_TYPE": "U", "NORAD_CAT_ID": 35442, "ELEMENT_SET_NO": 999, "REV_AT_EPOCH": 87218, "BSTAR": 0.004565269, "MEAN_MOTION_DOT": 0.00037992, "MEAN_MOTION_DDOT": 0}, "tle": {"line1": "1 35442U 93036AKL 25337.66661069  .00037992  00000+0  45653-2 0  9993", "line2": "2 35442  74.0258 117.1350 0004474 128.1598 231.9984 14.83772489872182"}}, "geometry": {"type": "Point", "coordinates": [-41.138752265716334, -54.07065384871542]}}, {"type": "Feature", "properties": {"norad_id": 35443, "name": "COSMOS 2251 DEB", "group": "cosmos-2251-debris", "lat": -73.7844356276588, "lon": -92.55093336794397, "alt_km": 626.3420084165436, "timestamp": "2025-12-04T10:51:50.502124+00:00", "meta": {"OBJECT_NAME": "COSMOS 2251 DEB", "OBJECT_ID": "1993-036AKM", "EPOCH": "2025-12-03T11:10:41.919744", "MEAN_MOTION": 14.95510344, "ECCENTRICITY": 0.0073868, "INCLINATION": 73.9866, "RA_OF_ASC_NODE": 350.3879, "ARG_OF_PERICENTER": 135.256, "MEAN_ANOMALY": 225.4616, "EPHEMERIS_TYPE": 0, "CLASSIFICATION_TYPE": "U", "NORAD_CAT_ID": 35443, "ELEMENT_SET_NO": 999, "REV_AT_EPOCH": 86739, "BSTAR": 0.0041144703, "MEAN_MOTION_DOT": 0.00048434, "MEAN_MOTION_DDOT": 0}, "tle": {"line1": "1 35443U 93036AKM 25337.46576296  .00048434  00000+0  41145-2 0  9994", "line2": "2 35443  73.9866 350.3879 0073868 135.2560 225.4616 14.95510344867394"}}, "geometry": {"type": "Point", "coordinates": [-92.55093336794397, -73.7844356276588]}}, {"type": "Feature", "properties": {"norad_id": 35445, "name": "COSMOS 2251 DEB", "group": "cosmos-2251-debris", "lat": -26.18378437662119, "lon": -52.28941778482868, "alt_km": 669.5682720966115, "timestamp": "2025-12-04T10:51:50.502135+00:00", "meta": {"OBJECT_NAME": "COSMOS 2251 DEB", "OBJECT_ID": "1993-036AKP", "EPOCH": "2025-12-01T05:37:58.814400", "MEAN_MOTION": 14.58784895, "ECCENTRICITY": 0.0143608, "INCLINATION": 74.0353, "RA_OF_ASC_NODE": 321.9314, "ARG_OF_PERICENTER": 51.7494, "MEAN_ANOMALY": 309.6492, "EPHEMERIS_TYPE": 0, "CLASSIFICATION_TYPE": "U", "NORAD_CAT_ID": 35445, "ELEMENT_SET_NO": 999, "REV_AT_EPOCH": 87161, "BSTAR": 0.0018521, "MEAN_MOTION_DOT": 9.974e-05, "MEAN_MOTION_DDOT": 0}, "tle": {"line1": "1 35445U 93036AKP 25335.23470850  .00009974  00000+0  18521-2 0  9996", "line2": "2 35445  74.0353 321.9314 0143608  51.7494 309.6492 14.58784895871615"}}, "geometry": {"type": "Point", "coordinates": [-52.28941778482868, -26.18378437662119]}}, {"type": "Feature", "properties": {"norad_id": 35446, "name": "COSMOS 2251 DEB", "group": "cosmos-2251-debris", "lat": 36.14656446941355, "lon": 141.7938231530966, "alt_km": 671.86755561065, "timestamp": "2025-12-04T10:51:50.502145+00:00", "meta": {"OBJECT_NAME": "COSMOS 2251 DEB", "OBJECT_ID": "1993-036AKQ", "EPOCH": "2025-11-30T07:11:01.736160", "MEAN_MOTION": 14.5460995, "ECCENTRICITY": 0.00744354, "INCLINATION": 74.0466, "RA_OF_ASC_NODE": 341.7043, "ARG_OF_PERICENTER": 103.5149, "MEAN_ANOMALY": 257.4321, "EPHEMERIS_TYPE": 0, "CLASSIFICATION_TYPE": "U", "NORAD_CAT_ID": 35446, "ELEMENT_SET_NO": 999, "REV_AT_EPOCH": 87827, "BSTAR": 0.00010353473, "MEAN_MOTION_DOT": 4.29e-06, "MEAN_MOTION_DDOT": 0}, "tle": {"line1": "1 35446U 93036AKQ 25334.29932565  .00000429  00000+0  10353-3 0  9990", "line2": "2 35446  74.0466 341.7043 0074435 103.5149 257.4321 14.54609950878278"}}, "geometry": {"type": "Point", "coordinates": [141.7938231530966, 36.14656446941355]}}, {"type": "Feature", "properties": {"norad_id": 35448, "name": "COSMOS 2251 DEB", "group": "cosmos-2251-debris", "lat": 12.076281921673559, "lon": 108.84547352797631, "alt_km": 712.7436639495645, "timestamp": "2025-12-04T10:51:50.502156+00:00", "meta": {"OBJECT_NAME": "COSMOS 2251 DEB", "OBJECT_ID": "1993-036AKS", "EPOCH": "2025-12-04T00:53:58.500960", "MEAN_MOTION": 14.5413126, "ECCENTRICITY": 0.0011164, "INCLINATION": 73.9026, "RA_OF_ASC_NODE": 106.0942, "ARG_OF_PERICENTER": 285.9815, "MEAN_ANOMALY": 74.0116, "EPHEMERIS_TYPE": 0, "CLASSIFICATION_TYPE": "U", "NORAD_CAT_ID": 35448, "ELEMENT_SET_NO": 999, "REV_AT_EPOCH": 87208, "BSTAR": 0.0023042, "MEAN_MOTION_DOT": 9.734e-05, "MEAN_MOTION_DDOT": 0}, "tle": {"line1": "1 35448U 93036AKS 25338.03748265  .00009734  00000+0  23042-2 0  9996", "line2": "2 35448  73.9026 106.0942 0011164 285.9815  74.0116 14.54131260872087"}}, "geometry": {"type": "Point", "coordinates": [108.84547352797631, 12.076281921673559]}}, {"type": "Feature", "properties": {"norad_id": 35451, "name": "COSMOS 2251 DEB", "group": "cosmos-2251-debris", "lat": 31.219052506331725, "lon": -69.50770663370874, "alt_km": 481.49121268614726, "timestamp": "2025-12-04T10:51:50.502166+00:00", "meta": {"OBJECT_NAME": "COSMOS 2251 DEB", "OBJECT_ID": "1993-036AKV", "EPOCH": "2025-12-02T09:42:30.995424", "MEAN_MOTION": 15.34019463, "ECCENTRICITY": 0.00397741, "INCLINATION": 73.9303, "RA_OF_ASC_NODE": 124.9673, "ARG_OF_PERICENTER": 13.4643, "MEAN_ANOMALY": 346.7612, "EPHEMERIS_TYPE": 0, "CLASSIFICATION_TYPE": "U", "NORAD_CAT_ID": 35451, "ELEMENT_SET_NO": 999, "REV_AT_EPOCH": 67247, "BSTAR": 0.0016761251, "MEAN_MOTION_DOT": 0.00056987, "MEAN_MOTION_DDOT": 0}, "tle": {"line1": "1 35451U 93036AKV 25336.40452541  .00056987  00000+0  16761-2 0  9990", "line2": "2 35451  73.9303 124.9673 0039774  13.4643 346.7612 15.34019463672479"}}, "geometry": {"type": "Point", "coordinates": [-69.50770663370874, 31.219052506331725]}}, {"type": "Feature", "properties": {"norad_id": 35453, "name": "COSMOS 2251 DEB", "group": "cosmos-2251-debris", "lat": -10.093155571822873, "lon": -141.41107315359244, "alt_km": 723.1667088703307, "timestamp": "2025-12-04T10:51:50.502177+00:00", "meta": {"OBJECT_NAME": "COSMOS 2251 DEB", "OBJECT_ID": "1993-036AKX", "EPOCH": "2025-12-02T12:53:58.122528", "MEAN_MOTION": 14.3790654, "ECCENTRICITY": 0.00680216, "INCLINATION": 74.0102, "RA_OF_ASC_NODE": 39.1945, "ARG_OF_PERICENTER": 175.6131, "MEAN_ANOMALY": 184.5634, "EPHEMERIS_TYPE": 0, "CLASSIFICATION_TYPE": "U", "NORAD_CAT_ID": 35453, "ELEMENT_SET_NO": 999, "REV_AT_EPOCH": 86072, "BSTAR": 0.00098540606, "MEAN_MOTION_DOT": 3.03e-05, "MEAN_MOTION_DDOT": 0}, "tle": {"line1": "1 35453U 93036AKX 25336.53747827  .00003030  00000+0  98541-3 0  9998", "line2": "2 35453  74.0102  39.1945 0068021 175.6131 184.5634 14.37906540860721"}}, "geometry": {"type": "Point", "coordinates": [-141.41107315359244, -10.093155571822873]}}, {"type": "Feature", "properties": {"norad_id": 35455, "name": "COSMOS 2251 DEB", "group": "cosmos-2251-debris", "lat": 60.00513798799784, "lon": -19.89342730683812, "alt_km": 652.5395929984961, "timestamp": "2025-12-04T10:51:50.502187+00:00", "meta": {"OBJECT_NAME": "COSMOS 2251 DEB", "OBJECT_ID": "1993-036AKZ", "EPOCH": "2025-12-03T16:20:58.881984", "MEAN_MOTION": 14.49223427, "ECCENTRICITY": 0.00987252, "INCLINATION": 74.028, "RA_OF_ASC_NODE": 311.8069, "ARG_OF_PERICENTER": 57.6143, "MEAN_ANOMALY": 303.4522, "EPHEMERIS_TYPE": 0, "CLASSIFICATION_TYPE": "U", "NORAD_CAT_ID": 35455, "ELEMENT_SET_NO": 999, "REV_AT_EPOCH": 86412, "BSTAR": 0.0020359442, "MEAN_MOTION_DOT": 8.236e-05, "MEAN_MOTION_DDOT": 0}, "tle": {"line1": "1 35455U 93036AKZ 25337.68123706  .00008236  00000+0  20359-2 0  9995", "line2": "2 35455  74.0280 311.8069 0098725  57.6143 303.4522 14.49223427864128"}}, "geometry": {"type": "Point", "coordinates": [-19.89342730683812, 60.00513798799784]}}]}